<?xml version="1.0" encoding="UTF-8"?>
<ndm xmlns:xsi="http://www.w3.org/2001/XMLSchema-instance" xsi:noNamespaceSchemaLocation="https://sanaregistry.org/r/ndmxml_unqualified/ndmxml-2.0.0-master-2.0.xsd">
<omm id="CCSDS_OMM_VERS" version="2.0">
<header><CREATION_DATE/><ORIGINATOR/></header><body><segment><metadata><OBJECT_NAME>KUIPER-00147</OBJECT_NAME><OBJECT_ID>2025-217G</OBJECT_ID><CENTER_NAME>EARTH</CENTER_NAME><REF_FRAME>TEME</REF_FRAME><TIME_SYSTEM>UTC</TIME_SYSTEM><MEAN_ELEMENT_THEORY>SGP4</MEAN_ELEMENT_THEORY></metadata><data><meanElements><EPOCH>2025-11-26T22:00:05.999904</EPOCH><MEAN_MOTION>15.22527275</MEAN_MOTION><ECCENTRICITY>.00088123</ECCENTRICITY><INCLINATION>51.8723</INCLINATION><RA_OF_ASC_NODE>141.8656</RA_OF_ASC_NODE><ARG_OF_PERICENTER>322.2153</ARG_OF_PERICENTER><MEAN_ANOMALY>148.2907</MEAN_ANOMALY></meanElements><tleParameters><EPHEMERIS_TYPE>0</EPHEMERIS_TYPE><CLASSIFICATION_TYPE>U</CLASSIFICATION_TYPE><NORAD_CAT_ID>65768</NORAD_CAT_ID><ELEMENT_SET_NO>999</ELEMENT_SET_NO><REV_AT_EPOCH>351</REV_AT_EPOCH><BSTAR>-.44651211E-1</BSTAR><MEAN_MOTION_DOT>-.970822E-2</MEAN_MOTION_DOT><MEAN_MOTION_DDOT>0</MEAN_MOTION_DDOT></tleParameters></data></segment></body></omm>
<omm id="CCSDS_OMM_VERS" version="2.0">
<header><CREATION_DATE/><ORIGINATOR/></header><body><segment><metadata><OBJECT_NAME>KUIPER-00148</OBJECT_NAME><OBJECT_ID>2025-217H</OBJECT_ID><CENTER_NAME>EARTH</CENTER_NAME><REF_FRAME>TEME</REF_FRAME><TIME_SYSTEM>UTC</TIME_SYSTEM><MEAN_ELEMENT_THEORY>SGP4</MEAN_ELEMENT_THEORY></metadata><data><meanElements><EPOCH>2025-11-26T22:00:05.999904</EPOCH><MEAN_MOTION>15.26275067</MEAN_MOTION><ECCENTRICITY>.00081636</ECCENTRICITY><INCLINATION>51.8641</INCLINATION><RA_OF_ASC_NODE>142.0676</RA_OF_ASC_NODE><ARG_OF_PERICENTER>338.4675</ARG_OF_PERICENTER><MEAN_ANOMALY>60.1890</MEAN_ANOMALY></meanElements><tleParameters><EPHEMERIS_TYPE>0</EPHEMERIS_TYPE><CLASSIFICATION_TYPE>U</CLASSIFICATION_TYPE><NORAD_CAT_ID>65769</NORAD_CAT_ID><ELEMENT_SET_NO>999</ELEMENT_SET_NO><REV_AT_EPOCH>205</REV_AT_EPOCH><BSTAR>-.12935371E-1</BSTAR><MEAN_MOTION_DOT>-.326341E-2</MEAN_MOTION_DOT><MEAN_MOTION_DDOT>0</MEAN_MOTION_DDOT></tleParameters></data></segment></body></omm>
<omm id="CCSDS_OMM_VERS" version="2.0">
<header><CREATION_DATE/><ORIGINATOR/></header><body><segment><metadata><OBJECT_NAME>KUIPER-00150</OBJECT_NAME><OBJECT_ID>2025-217J</OBJECT_ID><CENTER_NAME>EARTH</CENTER_NAME><REF_FRAME>TEME</REF_FRAME><TIME_SYSTEM>UTC</TIME_SYSTEM><MEAN_ELEMENT_THEORY>SGP4</MEAN_ELEMENT_THEORY></metadata><data><meanElements><EPOCH>2025-11-26T22:00:05.999904</EPOCH><MEAN_MOTION>14.97692466</MEAN_MOTION><ECCENTRICITY>.00088152</ECCENTRICITY><INCLINATION>51.8886</INCLINATION><RA_OF_ASC_NODE>145.8690</RA_OF_ASC_NODE><ARG_OF_PERICENTER>325.1330</ARG_OF_PERICENTER><MEAN_ANOMALY>297.6718</MEAN_ANOMALY></meanElements><tleParameters><EPHEMERIS_TYPE>0</EPHEMERIS_TYPE><CLASSIFICATION_TYPE>U</CLASSIFICATION_TYPE><NORAD_CAT_ID>65770</NORAD_CAT_ID><ELEMENT_SET_NO>999</ELEMENT_SET_NO><REV_AT_EPOCH>404</REV_AT_EPOCH><BSTAR>-.24106727E-1</BSTAR><MEAN_MOTION_DOT>-.275059E-2</MEAN_MOTION_DOT><MEAN_MOTION_DDOT>0</MEAN_MOTION_DDOT></tleParameters></data></segment></body></omm>
<omm id="CCSDS_OMM_VERS" version="2.0">
<header><CREATION_DATE/><ORIGINATOR/></header><body><segment><metadata><OBJECT_NAME>KUIPER-00151</OBJECT_NAME><OBJECT_ID>2025-217K</OBJECT_ID><CENTER_NAME>EARTH</CENTER_NAME><REF_FRAME>TEME</REF_FRAME><TIME_SYSTEM>UTC</TIME_SYSTEM><MEAN_ELEMENT_THEORY>SGP4</MEAN_ELEMENT_THEORY></metadata><data><meanElements><EPOCH>2025-11-26T22:00:05.999904</EPOCH><MEAN_MOTION>15.19987477</MEAN_MOTION><ECCENTRICITY>.00028601</ECCENTRICITY><INCLINATION>51.8736</INCLINATION><RA_OF_ASC_NODE>142.2551</RA_OF_ASC_NODE><ARG_OF_PERICENTER>289.5441</ARG_OF_PERICENTER><MEAN_ANOMALY>48.3545</MEAN_ANOMALY></meanElements><tleParameters><EPHEMERIS_TYPE>0</EPHEMERIS_TYPE><CLASSIFICATION_TYPE>U</CLASSIFICATION_TYPE><NORAD_CAT_ID>65771</NORAD_CAT_ID><ELEMENT_SET_NO>999</ELEMENT_SET_NO><REV_AT_EPOCH>514</REV_AT_EPOCH><BSTAR>-.28398227E-1</BSTAR><MEAN_MOTION_DOT>-.579952E-2</MEAN_MOTION_DOT><MEAN_MOTION_DDOT>0</MEAN_MOTION_DDOT></tleParameters></data></segment></body></omm>
<omm id="CCSDS_OMM_VERS" version="2.0">
<header><CREATION_DATE/><ORIGINATOR/></header><body><segment><metadata><OBJECT_NAME>KUIPER-00152</OBJECT_NAME><OBJECT_ID>2025-217L</OBJECT_ID><CENTER_NAME>EARTH</CENTER_NAME><REF_FRAME>TEME</REF_FRAME><TIME_SYSTEM>UTC</TIME_SYSTEM><MEAN_ELEMENT_THEORY>SGP4</MEAN_ELEMENT_THEORY></metadata><data><meanElements><EPOCH>2025-11-26T23:13:10.848288</EPOCH><MEAN_MOTION>15.38690616</MEAN_MOTION><ECCENTRICITY>.00024925</ECCENTRICITY><INCLINATION>51.8702</INCLINATION><RA_OF_ASC_NODE>140.2894</RA_OF_ASC_NODE><ARG_OF_PERICENTER>221.6203</ARG_OF_PERICENTER><MEAN_ANOMALY>138.4595</MEAN_ANOMALY></meanElements><tleParameters><EPHEMERIS_TYPE>0</EPHEMERIS_TYPE><CLASSIFICATION_TYPE>U</CLASSIFICATION_TYPE><NORAD_CAT_ID>65772</NORAD_CAT_ID><ELEMENT_SET_NO>999</ELEMENT_SET_NO><REV_AT_EPOCH>962</REV_AT_EPOCH><BSTAR>.14783236E-2</BSTAR><MEAN_MOTION_DOT>.57454E-3</MEAN_MOTION_DOT><MEAN_MOTION_DDOT>0</MEAN_MOTION_DDOT></tleParameters></data></segment></body></omm>
<omm id="CCSDS_OMM_VERS" version="2.0">
<header><CREATION_DATE/><ORIGINATOR/></header><body><segment><metadata><OBJECT_NAME>KUIPER-00153</OBJECT_NAME><OBJECT_ID>2025-217M</OBJECT_ID><CENTER_NAME>EARTH</CENTER_NAME><REF_FRAME>TEME</REF_FRAME><TIME_SYSTEM>UTC</TIME_SYSTEM><MEAN_ELEMENT_THEORY>SGP4</MEAN_ELEMENT_THEORY></metadata><data><meanElements><EPOCH>2025-11-26T16:35:02.894208</EPOCH><MEAN_MOTION>15.10704081</MEAN_MOTION><ECCENTRICITY>.00115368</ECCENTRICITY><INCLINATION>51.8746</INCLINATION><RA_OF_ASC_NODE>146.6234</RA_OF_ASC_NODE><ARG_OF_PERICENTER>323.2195</ARG_OF_PERICENTER><MEAN_ANOMALY>36.7988</MEAN_ANOMALY></meanElements><tleParameters><EPHEMERIS_TYPE>0</EPHEMERIS_TYPE><CLASSIFICATION_TYPE>U</CLASSIFICATION_TYPE><NORAD_CAT_ID>65773</NORAD_CAT_ID><ELEMENT_SET_NO>999</ELEMENT_SET_NO><REV_AT_EPOCH>951</REV_AT_EPOCH><BSTAR>.67774597E-3</BSTAR><MEAN_MOTION_DOT>.111E-3</MEAN_MOTION_DOT><MEAN_MOTION_DDOT>0</MEAN_MOTION_DDOT></tleParameters></data></segment></body></omm>
<omm id="CCSDS_OMM_VERS" version="2.0">
<header><CREATION_DATE/><ORIGINATOR/></header><body><segment><metadata><OBJECT_NAME>KUIPER-00155</OBJECT_NAME><OBJECT_ID>2025-217N</OBJECT_ID><CENTER_NAME>EARTH</CENTER_NAME><REF_FRAME>TEME</REF_FRAME><TIME_SYSTEM>UTC</TIME_SYSTEM><MEAN_ELEMENT_THEORY>SGP4</MEAN_ELEMENT_THEORY></metadata><data><meanElements><EPOCH>2025-11-26T22:00:05.999904</EPOCH><MEAN_MOTION>15.36802087</MEAN_MOTION><ECCENTRICITY>.00061279</ECCENTRICITY><INCLINATION>51.8636</INCLINATION><RA_OF_ASC_NODE>141.2432</RA_OF_ASC_NODE><ARG_OF_PERICENTER>308.1696</ARG_OF_PERICENTER><MEAN_ANOMALY>131.8679</MEAN_ANOMALY></meanElements><tleParameters><EPHEMERIS_TYPE>0</EPHEMERIS_TYPE><CLASSIFICATION_TYPE>U</CLASSIFICATION_TYPE><NORAD_CAT_ID>65774</NORAD_CAT_ID><ELEMENT_SET_NO>999</ELEMENT_SET_NO><REV_AT_EPOCH>595</REV_AT_EPOCH><BSTAR>.22553544E-2</BSTAR><MEAN_MOTION_DOT>.82936E-3</MEAN_MOTION_DOT><MEAN_MOTION_DDOT>0</MEAN_MOTION_DDOT></tleParameters></data></segment></body></omm>
<omm id="CCSDS_OMM_VERS" version="2.0">
<header><CREATION_DATE/><ORIGINATOR/></header><body><segment><metadata><OBJECT_NAME>KUIPER-00156</OBJECT_NAME><OBJECT_ID>2025-217P</OBJECT_ID><CENTER_NAME>EARTH</CENTER_NAME><REF_FRAME>TEME</REF_FRAME><TIME_SYSTEM>UTC</TIME_SYSTEM><MEAN_ELEMENT_THEORY>SGP4</MEAN_ELEMENT_THEORY></metadata><data><meanElements><EPOCH>2025-11-26T20:18:30.098016</EPOCH><MEAN_MOTION>15.38496188</MEAN_MOTION><ECCENTRICITY>.00027063</ECCENTRICITY><INCLINATION>51.8695</INCLINATION><RA_OF_ASC_NODE>140.9781</RA_OF_ASC_NODE><ARG_OF_PERICENTER>252.1350</ARG_OF_PERICENTER><MEAN_ANOMALY>107.9342</MEAN_ANOMALY></meanElements><tleParameters><EPHEMERIS_TYPE>0</EPHEMERIS_TYPE><CLASSIFICATION_TYPE>U</CLASSIFICATION_TYPE><NORAD_CAT_ID>65775</NORAD_CAT_ID><ELEMENT_SET_NO>999</ELEMENT_SET_NO><REV_AT_EPOCH>960</REV_AT_EPOCH><BSTAR>.10666579E-2</BSTAR><MEAN_MOTION_DOT>.40992E-3</MEAN_MOTION_DOT><MEAN_MOTION_DDOT>0</MEAN_MOTION_DDOT></tleParameters></data></segment></body></omm>
<omm id="CCSDS_OMM_VERS" version="2.0">
<header><CREATION_DATE/><ORIGINATOR/></header><body><segment><metadata><OBJECT_NAME>KUIPER-00158</OBJECT_NAME><OBJECT_ID>2025-217Q</OBJECT_ID><CENTER_NAME>EARTH</CENTER_NAME><REF_FRAME>TEME</REF_FRAME><TIME_SYSTEM>UTC</TIME_SYSTEM><MEAN_ELEMENT_THEORY>SGP4</MEAN_ELEMENT_THEORY></metadata><data><meanElements><EPOCH>2025-11-26T22:00:05.999904</EPOCH><MEAN_MOTION>15.14003949</MEAN_MOTION><ECCENTRICITY>.00043981</ECCENTRICITY><INCLINATION>51.8762</INCLINATION><RA_OF_ASC_NODE>143.1923</RA_OF_ASC_NODE><ARG_OF_PERICENTER>281.9954</ARG_OF_PERICENTER><MEAN_ANOMALY>324.5689</MEAN_ANOMALY></meanElements><tleParameters><EPHEMERIS_TYPE>0</EPHEMERIS_TYPE><CLASSIFICATION_TYPE>U</CLASSIFICATION_TYPE><NORAD_CAT_ID>65776</NORAD_CAT_ID><ELEMENT_SET_NO>999</ELEMENT_SET_NO><REV_AT_EPOCH>481</REV_AT_EPOCH><BSTAR>.32684237E-2</BSTAR><MEAN_MOTION_DOT>.60296E-3</MEAN_MOTION_DOT><MEAN_MOTION_DDOT>0</MEAN_MOTION_DDOT></tleParameters></data></segment></body></omm>

</ndm>
